#cP2021 09 13  0  0  0.00000000      96     U IGb14 FIT  EMR
## 2175 086400.00000000   900.00000000 59470 0.0000000000000                    
+   32   G01G02G03G04G05G06G07G08G09G10G11G12G13G14G15G16G17
+        G18G19G20G21G22G23G24G25G26G27G28G29G30G31G32 00 00
+         00 00 00 00 00 00 00 00 00 00 00 00 00 00 00 00 00
+         00 00 00 00 00 00 00 00 00 00 00 00 00 00 00 00 00
+         00 00 00 00 00 00 00 00 00 00 00 00 00 00 00 00 00
++         6  6  6  6  6  6  6  6  6  6  6  6  6  6  6  6  6                    
++         6  6  6  6  6  6  6  6  6  6  6  6  6  6  6  0  0                    
++         0  0  0  0  0  0  0  0  0  0  0  0  0  0  0  0  0                    
++         0  0  0  0  0  0  0  0  0  0  0  0  0  0  0  0  0                    
++         0  0  0  0  0  0  0  0  0  0  0  0  0  0  0  0  0                    
%c G  cc GPS ccc cccc cccc cccc cccc ccccc ccccc ccccc ccccc
%c cc cc ccc ccc cccc cccc cccc cccc ccccc ccccc ccccc ccccc                    
%f  1.2500000  1.025000000  0.00000000000  0.000000000000000
%f  0.0000000  0.000000000  0.00000000000  0.000000000000000                    
%i    0    0    0    0      0      0      0      0         0                    
%i    0    0    0    0      0      0      0      0         0                    
/* CCCCCCCCCCCCCCCCCCCCCCCCCCCCCCCCCCCCCCCCCCCCCCCCCCCCCCCCC                    
/* CCCCCCCCCCCCCCCCCCCCCCCCCCCCCCCCCCCCCCCCCCCCCCCCCCCCCCCCC                    
/* CCCCCCCCCCCCCCCCCCCCCCCCCCCCCCCCCCCCCCCCCCCCCCCCCCCCCCCCC                    
/* PCV:IGS14_2097 OL/AL:FES2004  NONE     YN ORB:CoN CLK:CoN                    
*  2021  9 13  6 45  0.00000000                                                 
PG01  13603.793769 -22412.620563  -3160.153706    568.955778                    
PG02 -18448.125559   8540.434530 -16481.863418   -632.212636                    
PG03  11925.274366 -12728.623529 -20103.882599   -287.820656                    
PG04   3649.894881 -20636.241955 -16274.949207   -204.486316                    
PG05 -23156.993161   6654.051085  11188.217382    -54.427537                    
PG06 -13800.265551  -5685.880669 -21914.688449     73.327967                    
PG07   1360.838782 -21302.383153  15854.857301    244.015179                    
PG08  11150.709775 -10926.630192  21433.933900    -36.468896                    
PG09  -6434.581860 -24795.271649  -7038.138693   -361.042803                    
PG10  19063.438295  11747.968018  14618.285665   -202.433757                    
PG11 -19576.285264   5307.869443 -17156.158519     17.283523                    
PG12 -13351.068588  11635.933653 -20001.506701    -96.845534                    
PG13 -14869.804108   2468.497519  21732.388690    184.605337                    
PG14 -18674.928175 -12590.673899  14117.109700      2.305100                    
PG15 -10189.359314  12699.749107  20548.272743   -121.644323                    
PG16  25718.263451   -322.676862   7276.858585   -389.945640                    
PG17 -12861.397700 -22386.082394  -5780.573580    503.755945                    
PG18   -537.655303  20364.676363  16980.187310    322.731962                    
PG19 -15732.821754 -16041.405689 -14560.126013     52.112597                    
PG20 -26380.828697   1323.526524   -282.060821    518.985936                    
PG21  16971.291650 -19107.927291   6775.171546    142.272003                    
PG22  18781.654686 -11129.684145 -14813.761482   -514.649885                    
PG23   7529.453517  14842.280252  20691.588834     57.977726                    
PG24 -14801.162634  21664.267188   2044.960499    233.229177                    
PG25  -1677.133259  15279.066888 -21920.146145    207.268372                    
PG26  25733.683962   4952.783478  -5226.317363    133.456896                    
PG27  15923.063832    311.857232  21138.554360   -192.372205                    
PG28 -22583.784443 -10678.902440   9269.116447    501.900756                    
PG29   2510.218872  24668.134091  -9472.458890   -411.112764                    
PG30  -8724.943343 -13992.751513  20852.605427   -472.525271                    
PG31  15801.912444   3821.270721 -21173.076961   -139.671654                    
PG32  15964.083439  19378.919894  -8818.774473     -0.238611                    
*  2021  9 13  7  0  0.00000000                                                 
PG01  13869.723257 -22433.692010   -244.407095    568.945812                    
PG02 -17569.143504   6630.622583 -18162.778840   -632.214357                    
PG03  14119.945885 -12491.395700 -18771.317420   -287.832564                    
PG04   4616.619574 -18917.209237 -18029.470963   -204.486290                    
PG05 -24305.481386   6402.072942   8664.807531    -54.429007                    
PG06 -12415.514641  -7796.004379 -22087.891336     73.334596                    
PG07   2469.655895 -22554.602447  13761.802614    244.021767                    
PG08  12340.364376  -8752.674404  21804.306627    -36.470094                    
PG09  -5768.990741 -24073.081165  -9661.355312   -361.043205                    
PG10  17301.910161  11790.782352  16626.650481   -202.440776                    
PG11 -18466.055835   3574.794514 -18762.826830     17.285943                    
PG12 -15481.483045  11247.800113 -18611.138597    -96.850388                    
PG13 -15656.347685    104.723271  21331.931954    184.610552                    
PG14 -16933.206273 -12605.202804  16149.285597      2.297787                    
PG15 -11608.981798  10676.153836  20965.811063   -121.641591                    
PG16  26378.207518    -36.729122   4531.102605   -389.951251                    
PG17 -12894.623769 -22967.119499  -2940.902115    503.761176                    
PG18  -1712.167247  21783.569375  15022.492292    322.728174                    
PG19 -16121.692138 -17482.280476 -12264.411219     52.117416                    
PG20 -26219.417137    971.500080  -3101.017252    518.985865                    
PG21  16792.746943 -18225.068913   9450.253339    142.273749                    
PG22  20403.242572 -10936.401278 -12665.356781   -514.641040                    
PG23   5116.863026  14824.830572  21421.159152     57.973418                    
PG24 -14905.622336  21115.585756   4834.349248    233.236974                    
PG25  -4112.570411  15113.957535 -21685.263557    207.274085                    
PG26  24990.470884   5221.375290  -7890.521602    133.460848                    
PG27  16946.162468   2474.842395  20220.275784   -192.376944                    
PG28 -21428.550763 -10703.757167  11805.277806    501.894433                    
PG29   1887.070932  23603.108272 -12009.301095   -411.117637                    
PG30  -7310.477148 -15856.747278  20022.216438   -472.528629                    
PG31  14440.496486   5829.450188 -21642.601465   -139.673219                    
PG32  16147.537972  20258.436846  -6153.685265     -0.241610                    
*  2021  9 13  7 15  0.00000000                                                 
PG01  13966.525680 -22180.394527   2675.606517    568.935915                    
PG02 -16712.266426   4515.269299 -19515.301417   -632.216253                    
PG03  16156.723473 -12371.861662 -17117.328917   -287.844426                    
PG04   5756.452859 -17091.242419 -19472.943444   -204.486220                    
PG05 -25170.775894   6199.979189   5992.682273    -54.430339                    
PG06 -11151.227271  -9978.704094 -21878.900778     73.341248                    
PG07   3392.247938 -23647.683238  11431.321371    244.028263                    
PG08  13652.437120  -6629.628454  21798.610739    -36.470792                    
PG09  -4920.143299 -23139.773874 -12118.542184   -361.043662                    
PG10  15334.529972  11930.219037  18354.486166   -202.447717                    
PG11 -17357.798461   1649.750952 -20046.884208     17.288293                    
PG12 -17458.373828  10987.115607 -16905.296424    -96.855345                    
PG13 -16541.071133  -2150.598359  20560.287749    184.615341                    
PG14 -14980.369082 -12700.041870  17904.123294      2.290482                    
PG15 -13133.871479   8701.172795  21009.086309   -121.639036                    
PG16  26740.586970    182.507160   1709.099676   -389.956960                    
PG17 -12816.532837 -23251.578582    -50.241326    503.766059                    
PG18  -2687.232629  23060.265123  12804.999373    322.724328                    
PG19 -16479.958509 -18654.600556  -9762.256407     52.121310                    
PG20 -25761.548652    565.940270  -5865.755458    518.985464                    
PG21  16529.413412 -17076.132296  11962.070726    142.275460                    
PG22  21776.125703 -10794.814024 -10294.683457   -514.632748                    
PG23   2644.217761  14936.497986  21781.657296     57.969063                    
PG24 -14899.866607  20289.262075   7537.972768    233.244741                    
PG25  -6509.632856  15076.612749 -21085.142931    207.279751                    
PG26  23970.462803   5539.954293 -10421.357864    133.464587                    
PG27  18021.309356   4467.666238  18951.611539   -192.381722                    
PG28 -20007.649978 -10762.519980  14141.570399    501.888019                    
PG29   1085.550223  22326.067957 -14339.223380   -411.123090                    
PG30  -6044.747276 -17692.100694  18847.541529   -472.532053                    
PG31  13165.781816   7936.658484 -21744.001716   -139.675299                    
PG32  16221.742398  20861.707586  -3383.465412     -0.244625                    
EOF                                                                             
